{
    "links": {
        "self": "http://www.neowsapp.com/rest/v1/neo/3989333?api_key=iIulBulltgU6a56xZRHN4H3l9WmuAYTsLGpBGhQ2"
    },
    "id": "3989333",
    "neo_reference_id": "3989333",
    "name": "(2020 BK14)",
    "designation": "2020 BK14",
    "nasa_jpl_url": "http://ssd.jpl.nasa.gov/sbdb.cgi?sstr=3989333",
    "absolute_magnitude_h": 22.344,
    "estimated_diameter": {
        "kilometers": {
            "estimated_diameter_min": 0.090313979,
            "estimated_diameter_max": 0.2019481964
        },
        "meters": {
            "estimated_diameter_min": 90.3139790036,
            "estimated_diameter_max": 201.9481963706
        },
        "miles": {
            "estimated_diameter_min": 0.0561184874,
            "estimated_diameter_max": 0.1254847527
        },
        "feet": {
            "estimated_diameter_min": 296.3057148743,
            "estimated_diameter_max": 662.5597205806
        }
    },
    "is_potentially_hazardous_asteroid": false,
    "close_approach_data": [
        {
            "close_approach_date": "2019-12-30",
            "close_approach_date_full": "2019-Dec-30 17:13",
            "epoch_date_close_approach": 1577725980000,
            "relative_velocity": {
                "kilometers_per_second": "19.8717116892",
                "kilometers_per_hour": "71538.1620809486",
                "miles_per_hour": "44451.031877465"
            },
            "miss_distance": {
                "astronomical": "0.129511542",
                "lunar": "50.379989838",
                "kilometers": "19374650.82361554",
                "miles": "12038849.772912852"
            },
            "orbiting_body": "Earth"
        }
    ],
    "orbital_data": {
        "orbit_id": "1",
        "orbit_determination_date": "2020-02-01 09:12:17",
        "first_observation_date": "2020-01-24",
        "last_observation_date": "2020-01-31",
        "data_arc_in_days": 7,
        "observations_used": 18,
        "orbit_uncertainty": "9",
        "minimum_orbit_intersection": ".10953",
        "jupiter_tisserand_invariant": "2.914",
        "epoch_osculation": "2458876.5",
        "eccentricity": ".7242986072342291",
        "semi_major_axis": "2.697396594335801",
        "inclination": "7.239561535448539",
        "ascending_node_longitude": "31.63694730661011",
        "orbital_period": "1618.138287814173",
        "perihelion_distance": ".7436759979000275",
        "perihelion_argument": "358.2964651558696",
        "aphelion_distance": "4.651117190771576",
        "perihelion_time": "2458809.219071835515",
        "mean_anomaly": "14.96851926786381",
        "mean_motion": ".2224778949432673",
        "equinox": "J2000",
        "orbit_class": {
            "orbit_class_type": "APO",
            "orbit_class_description": "Near-Earth asteroid orbits which cross the Earth’s orbit similar to that of 1862 Apollo",
            "orbit_class_range": "a (semi-major axis) > 1.0 AU; q (perihelion) < 1.017 AU"
        }
    },
    "is_sentry_object": false
}